start=new Date('2023-05-07T00:00:00.000Z').valueOf();
sats=[{"PERIOD":"93.949","SITE":"AFWTR","EPOCH":"2023-05-06T16:00:00.999936","OBJECT_NAME":"STARLINK-5930","MEAN_MOTION":"15.32746197","MEAN_ELEMENT_THEORY":"SGP4","OBJECT_TYPE":"PAYLOAD","EPHEMERIS_TYPE":"0","CLASSIFICATION_TYPE":"U","BSTAR":"-0.03038200000000","SEMIMAJOR_AXIS":"6845.760","LAUNCH_DATE":"2023-03-17","OBJECT_ID":"2023-037Q","MEAN_ANOMALY":"133.2130","APOAPSIS":"469.860","RCS_SIZE":"LARGE","RA_OF_ASC_NODE":"42.7333","DECAY_DATE":null,"CENTER_NAME":"EARTH","TLE_LINE2":"2 55928  70.0023  42.7333 0003265 267.5544 133.2130 15.32746197  1306","ARG_OF_PERICENTER":"267.5544","PERIAPSIS":"465.390","MEAN_MOTION_DDOT":"0.0000000000000","FILE":"3902298","TIME_SYSTEM":"UTC","TLE_LINE1":"1 55928U 23037Q   23126.66667824 -.00886094  00000-0 -30382-1 0  9997","REV_AT_EPOCH":"130","REF_FRAME":"TEME","INCLINATION":"70.0023","NORAD_CAT_ID":"55928","ECCENTRICITY":"0.00032650","MEAN_MOTION_DOT":"-0.00886094","COUNTRY_CODE":"US","GP_ID":"231355263","ELEMENT_SET_NO":"999"},{"PERIOD":"93.962","SITE":"AFWTR","CLASSIFICATION_TYPE":"U","EPHEMERIS_TYPE":"0","OBJECT_TYPE":"PAYLOAD","MEAN_MOTION":"15.32533810","OBJECT_NAME":"STARLINK-5898","MEAN_ELEMENT_THEORY":"SGP4","EPOCH":"2023-05-06T16:00:00.999936","MEAN_ANOMALY":"126.3965","OBJECT_ID":"2023-037R","LAUNCH_DATE":"2023-03-17","SEMIMAJOR_AXIS":"6846.393","BSTAR":"-0.03055400000000","DECAY_DATE":null,"RCS_SIZE":"LARGE","RA_OF_ASC_NODE":"42.7423","APOAPSIS":"470.500","ARG_OF_PERICENTER":"266.2888","PERIAPSIS":"466.015","CENTER_NAME":"EARTH","TLE_LINE2":"2 55929  70.0019  42.7423 0003275 266.2888 126.3965 15.32533810  1305","REF_FRAME":"TEME","REV_AT_EPOCH":"130","TLE_LINE1":"1 55929U 23037R   23126.66667824 -.00885238  00000-0 -30554-1 0  9998","TIME_SYSTEM":"UTC","FILE":"3902298","MEAN_MOTION_DDOT":"0.0000000000000","MEAN_MOTION_DOT":"-0.00885238","NORAD_CAT_ID":"55929","ECCENTRICITY":"0.00032750","INCLINATION":"70.0019","ELEMENT_SET_NO":"999","GP_ID":"231355506","COUNTRY_CODE":"US"},{"INCLINATION":"70.0010","NORAD_CAT_ID":"55930","ECCENTRICITY":"0.00033470","MEAN_MOTION_DOT":"-0.00000189","COUNTRY_CODE":"US","GP_ID":"231353761","ELEMENT_SET_NO":"999","CENTER_NAME":"EARTH","TLE_LINE2":"2 55930  70.0010  42.1835 0003347 260.0550 100.0268 15.69921601  7947","ARG_OF_PERICENTER":"260.0550","PERIAPSIS":"356.868","MEAN_MOTION_DDOT":"0.0000000000000","FILE":"3902298","TIME_SYSTEM":"UTC","TLE_LINE1":"1 55930U 23037S   23126.16770955 -.00000189  00000-0  19723-6 0  9998","REV_AT_EPOCH":"794","REF_FRAME":"TEME","BSTAR":"0.00000019723000","SEMIMAJOR_AXIS":"6737.258","LAUNCH_DATE":"2023-03-17","OBJECT_ID":"2023-037S","MEAN_ANOMALY":"100.0268","APOAPSIS":"361.378","RA_OF_ASC_NODE":"42.1835","RCS_SIZE":"LARGE","DECAY_DATE":null,"PERIOD":"91.724","SITE":"AFWTR","EPOCH":"2023-05-06T04:01:30.105120","OBJECT_NAME":"STARLINK-5896","MEAN_MOTION":"15.69921601","MEAN_ELEMENT_THEORY":"SGP4","OBJECT_TYPE":"PAYLOAD","EPHEMERIS_TYPE":"0","CLASSIFICATION_TYPE":"U"},{"OBJECT_ID":"2023-037T","MEAN_ANOMALY":"140.2828","BSTAR":"-0.03019300000000","SEMIMAJOR_AXIS":"6845.120","LAUNCH_DATE":"2023-03-17","RCS_SIZE":"LARGE","RA_OF_ASC_NODE":"42.7238","APOAPSIS":"469.209","DECAY_DATE":null,"SITE":"AFWTR","PERIOD":"93.936","EPHEMERIS_TYPE":"0","OBJECT_TYPE":"PAYLOAD","CLASSIFICATION_TYPE":"U","MEAN_ELEMENT_THEORY":"SGP4","OBJECT_NAME":"STARLINK-5897","MEAN_MOTION":"15.32961087","EPOCH":"2023-05-06T16:00:00.999936","ECCENTRICITY":"0.00032490","NORAD_CAT_ID":"55931","INCLINATION":"70.0020","MEAN_MOTION_DOT":"-0.00886535","ELEMENT_SET_NO":"999","COUNTRY_CODE":"US","GP_ID":"231354011","ARG_OF_PERICENTER":"268.5753","PERIAPSIS":"464.761","CENTER_NAME":"EARTH","TLE_LINE2":"2 55931  70.0020  42.7238 0003249 268.5753 140.2828 15.32961087  1305","TLE_LINE1":"1 55931U 23037T   23126.66667824 -.00886535  00000-0 -30193-1 0  9991","TIME_SYSTEM":"UTC","REF_FRAME":"TEME","REV_AT_EPOCH":"130","MEAN_MOTION_DDOT":"0.0000000000000","FILE":"3902298"},{"PERIAPSIS":"356.627","ARG_OF_PERICENTER":"261.1115","TLE_LINE2":"2 55932  70.0023  40.7579 0003825 261.1115  57.2155 15.69893351  1304","CENTER_NAME":"EARTH","REF_FRAME":"TEME","REV_AT_EPOCH":"130","TLE_LINE1":"1 55932U 23037U   23126.66667824  .00078762  00000-0  65144-3 0  9991","TIME_SYSTEM":"UTC","FILE":"3902298","MEAN_MOTION_DDOT":"0.0000000000000","MEAN_MOTION_DOT":"0.00078762","NORAD_CAT_ID":"55932","ECCENTRICITY":"0.00038250","INCLINATION":"70.0023","ELEMENT_SET_NO":"999","GP_ID":"231354763","COUNTRY_CODE":"US","SITE":"AFWTR","PERIOD":"91.726","CLASSIFICATION_TYPE":"U","EPHEMERIS_TYPE":"0","OBJECT_TYPE":"PAYLOAD","MEAN_MOTION":"15.69893351","MEAN_ELEMENT_THEORY":"SGP4","OBJECT_NAME":"STARLINK-5848","EPOCH":"2023-05-06T16:00:00.999936","MEAN_ANOMALY":"57.2155","OBJECT_ID":"2023-037U","SEMIMAJOR_AXIS":"6737.339","LAUNCH_DATE":"2023-03-17","BSTAR":"0.00065144000000","DECAY_DATE":null,"RCS_SIZE":"LARGE","RA_OF_ASC_NODE":"40.7579","APOAPSIS":"361.781"},{"EPOCH":"2023-05-06T04:02:06.232416","MEAN_ELEMENT_THEORY":"SGP4","OBJECT_NAME":"STARLINK-5852","MEAN_MOTION":"15.69926974","CLASSIFICATION_TYPE":"U","OBJECT_TYPE":"PAYLOAD","EPHEMERIS_TYPE":"0","PERIOD":"91.724","SITE":"AFWTR","DECAY_DATE":null,"APOAPSIS":"361.591","RA_OF_ASC_NODE":"42.1854","RCS_SIZE":"LARGE","SEMIMAJOR_AXIS":"6737.243","LAUNCH_DATE":"2023-03-17","BSTAR":"0.00001626400000","MEAN_ANOMALY":"97.6095","OBJECT_ID":"2023-037V","FILE":"3902298","MEAN_MOTION_DDOT":"0.0000000000000","REV_AT_EPOCH":"794","REF_FRAME":"TEME","TIME_SYSTEM":"UTC","TLE_LINE1":"1 55933U 23037V   23126.16812769  .00001743  00000-0  16264-4 0  9992","TLE_LINE2":"2 55933  70.0009  42.1854 0003686 262.4682  97.6095 15.69926974  7944","CENTER_NAME":"EARTH","ARG_OF_PERICENTER":"262.4682","PERIAPSIS":"356.625","GP_ID":"231355006","COUNTRY_CODE":"US","ELEMENT_SET_NO":"999","MEAN_MOTION_DOT":"0.00001743","INCLINATION":"70.0009","ECCENTRICITY":"0.00036860","NORAD_CAT_ID":"55933"},{"LAUNCH_DATE":"2023-03-17","SEMIMAJOR_AXIS":"6737.255","BSTAR":"0.00000339040000","MEAN_ANOMALY":"98.5697","OBJECT_ID":"2023-037W","DECAY_DATE":null,"APOAPSIS":"361.568","RA_OF_ASC_NODE":"42.1831","RCS_SIZE":"LARGE","PERIOD":"91.724","SITE":"AFWTR","EPOCH":"2023-05-06T04:00:35.237664","MEAN_MOTION":"15.69922674","OBJECT_NAME":"STARLINK-5927","MEAN_ELEMENT_THEORY":"SGP4","CLASSIFICATION_TYPE":"U","OBJECT_TYPE":"PAYLOAD","EPHEMERIS_TYPE":"0","MEAN_MOTION_DOT":"0.00000195","INCLINATION":"70.0015","NORAD_CAT_ID":"55934","ECCENTRICITY":"0.00036330","GP_ID":"231354262","COUNTRY_CODE":"US","ELEMENT_SET_NO":"999","TLE_LINE2":"2 55934  70.0015  42.1831 0003633 261.5087  98.5697 15.69922674  7949","CENTER_NAME":"EARTH","ARG_OF_PERICENTER":"261.5087","PERIAPSIS":"356.673","FILE":"3902298","MEAN_MOTION_DDOT":"0.0000000000000","REV_AT_EPOCH":"794","REF_FRAME":"TEME","TIME_SYSTEM":"UTC","TLE_LINE1":"1 55934U 23037W   23126.16707451  .00000195  00000-0  33904-5 0  9995"},{"ELEMENT_SET_NO":"999","COUNTRY_CODE":"US","GP_ID":"231354512","INCLINATION":"70.0025","ECCENTRICITY":"0.00036320","NORAD_CAT_ID":"55935","MEAN_MOTION_DOT":"0.00016961","TIME_SYSTEM":"UTC","TLE_LINE1":"1 55935U 23037X   23126.16760391  .00016961  00000-0  14243-3 0  9999","REV_AT_EPOCH":"794","REF_FRAME":"TEME","MEAN_MOTION_DDOT":"0.0000000000000","FILE":"3902298","ARG_OF_PERICENTER":"262.1794","PERIAPSIS":"356.619","CENTER_NAME":"EARTH","TLE_LINE2":"2 55935  70.0025  42.1842 0003632 262.1794  97.8989 15.69941610  7941","APOAPSIS":"361.513","RCS_SIZE":"LARGE","RA_OF_ASC_NODE":"42.1842","DECAY_DATE":null,"OBJECT_ID":"2023-037X","MEAN_ANOMALY":"97.8989","BSTAR":"0.00014243000000","LAUNCH_DATE":"2023-03-17","SEMIMAJOR_AXIS":"6737.201","OBJECT_TYPE":"PAYLOAD","EPHEMERIS_TYPE":"0","CLASSIFICATION_TYPE":"U","EPOCH":"2023-05-06T04:01:20.977824","MEAN_ELEMENT_THEORY":"SGP4","OBJECT_NAME":"STARLINK-5920","MEAN_MOTION":"15.69941610","PERIOD":"91.723","SITE":"AFWTR"},{"OBJECT_ID":"2023-037Y","MEAN_ANOMALY":"55.5359","BSTAR":"0.00029912000000","SEMIMAJOR_AXIS":"6737.291","LAUNCH_DATE":"2023-03-17","RCS_SIZE":"LARGE","RA_OF_ASC_NODE":"40.7585","APOAPSIS":"361.594","DECAY_DATE":null,"PERIOD":"91.725","SITE":"AFWTR","EPHEMERIS_TYPE":"0","OBJECT_TYPE":"PAYLOAD","CLASSIFICATION_TYPE":"U","OBJECT_NAME":"STARLINK-5882","MEAN_ELEMENT_THEORY":"SGP4","MEAN_MOTION":"15.69910124","EPOCH":"2023-05-06T16:00:00.999936","NORAD_CAT_ID":"55936","ECCENTRICITY":"0.00036190","INCLINATION":"70.0024","MEAN_MOTION_DOT":"0.00035889","ELEMENT_SET_NO":"999","COUNTRY_CODE":"US","GP_ID":"231355264","ARG_OF_PERICENTER":"262.1981","PERIAPSIS":"356.718","CENTER_NAME":"EARTH","TLE_LINE2":"2 55936  70.0024  40.7585 0003619 262.1981  55.5359 15.69910124  1304","TLE_LINE1":"1 55936U 23037Y   23126.66667824  .00035889  00000-0  29912-3 0  9991","TIME_SYSTEM":"UTC","REF_FRAME":"TEME","REV_AT_EPOCH":"130","MEAN_MOTION_DDOT":"0.0000000000000","FILE":"3902298"},{"SEMIMAJOR_AXIS":"6737.229","LAUNCH_DATE":"2023-03-17","BSTAR":"0.00002060300000","MEAN_ANOMALY":"101.6390","OBJECT_ID":"2023-037Z","DECAY_DATE":null,"RA_OF_ASC_NODE":"42.1840","RCS_SIZE":"LARGE","APOAPSIS":"361.456","PERIOD":"91.724","SITE":"AFWTR","MEAN_ELEMENT_THEORY":"SGP4","OBJECT_NAME":"STARLINK-5913","MEAN_MOTION":"15.69931787","EPOCH":"2023-05-06T04:01:11.400384","CLASSIFICATION_TYPE":"U","EPHEMERIS_TYPE":"0","OBJECT_TYPE":"PAYLOAD","MEAN_MOTION_DOT":"0.00002266","ECCENTRICITY":"0.00035050","NORAD_CAT_ID":"55937","INCLINATION":"70.0014","GP_ID":"231355507","COUNTRY_CODE":"US","ELEMENT_SET_NO":"999","CENTER_NAME":"EARTH","TLE_LINE2":"2 55937  70.0014  42.1840 0003505 258.4412 101.6390 15.69931787  7947","PERIAPSIS":"356.733","ARG_OF_PERICENTER":"258.4412","FILE":"3902298","MEAN_MOTION_DDOT":"0.0000000000000","REF_FRAME":"TEME","REV_AT_EPOCH":"794","TLE_LINE1":"1 55937U 23037Z   23126.16749306  .00002266  00000-0  20603-4 0  9995","TIME_SYSTEM":"UTC"}];
